[{"OBJECT_NAME":"JILIN-1 07","OBJECT_ID":"2018-008E","EPOCH":"2026-03-09T22:24:26.445888","MEAN_MOTION":15.32987507,"ECCENTRICITY":0.00101791,"INCLINATION":97.1876,"RA_OF_ASC_NODE":91.5817,"ARG_OF_PERICENTER":62.7832,"MEAN_ANOMALY":297.4447,"EPHEMERIS_TYPE":0,"CLASSIFICATION_TYPE":"U","NORAD_CAT_ID":43159,"ELEMENT_SET_NO":999,"REV_AT_EPOCH":44978,"BSTAR":0.00036439521,"MEAN_MOTION_DOT":0.00011559,"MEAN_MOTION_DDOT":0},{"OBJECT_NAME":"STARLINK-35114","OBJECT_ID":"2025-198L","EPOCH":"2026-03-09T19:55:44.591808","MEAN_MOTION":15.30195328,"ECCENTRICITY":8.316e-5,"INCLINATION":53.1588,"RA_OF_ASC_NODE":270.2032,"ARG_OF_PERICENTER":86.623,"MEAN_ANOMALY":273.4866,"EPHEMERIS_TYPE":0,"CLASSIFICATION_TYPE":"U","NORAD_CAT_ID":65502,"ELEMENT_SET_NO":999,"REV_AT_EPOCH":2864,"BSTAR":0.00055153274,"MEAN_MOTION_DOT":0.00016009,"MEAN_MOTION_DDOT":0}]
